{"type": "FeatureCollection", "features": [ {"type": "Feature", "properties": {"norad_id": 34784, "name": "COSMOS 2251 DEB", "group": "cosmos-2251-debris", "lat": -1.8251471042406444, "lon": 150.6865039158111, "alt_km": 667.2545703927999, "timestamp": "2025-12-09T16:56:36.969413+00:00", "meta": {"OBJECT_NAME": "COSMOS 2251 DEB", "OBJECT_ID": "1993-036AAM", "EPOCH": "2025-12-09T09:32:34.368864", "MEAN_MOTION": 14.60755822, "ECCENTRICITY": 0.004952, "INCLINATION": 74.0076, "RA_OF_ASC_NODE": 330.7528, "ARG_OF_PERICENTER": 141.0713, "MEAN_ANOMALY": 219.4036, "EPHEMERIS_TYPE": 0, "CLASSIFICATION_TYPE": "U", "NORAD_CAT_ID": 34784, "ELEMENT_SET_NO": 999, "REV_AT_EPOCH": 88486, "BSTAR": 0.00077016, "MEAN_MOTION_DOT": 3.794e-05, "MEAN_MOTION_DDOT": 0}, "tle": {"line1": "1 34784U 93036AAM 25343.39762001  .00003794  00000+0  77016-3 0  9998", "line2": "2 34784  74.0076 330.7528 0049520 141.0713 219.4036 14.60755822884866"}}, "geometry": {"type": "Point", "coordinates": [150.6865039158111, -1.8251471042406444]}}, {"type": "Feature", "properties": {"norad_id": 34790, "name": "COSMOS 2251 DEB", "group": "cosmos-2251-debris", "lat": -16.822341976855284, "lon": -115.7899799341044, "alt_km": 752.139155836544, "timestamp": "2025-12-09T16:56:36.969423+00:00", "meta": {"OBJECT_NAME": "COSMOS 2251 DEB", "OBJECT_ID": "1993-036AAT", "EPOCH": "2025-12-09T04:18:49.662144", "MEAN_MOTION": 14.24610447, "ECCENTRICITY": 0.01007438, "INCLINATION": 74.0552, "RA_OF_ASC_NODE": 250.1156, "ARG_OF_PERICENTER": 312.5017, "MEAN_ANOMALY": 211.6898, "EPHEMERIS_TYPE": 0, "CLASSIFICATION_TYPE": "U", "NORAD_CAT_ID": 34790, "ELEMENT_SET_NO": 999, "REV_AT_EPOCH": 86522, "BSTAR": 0.001032802, "MEAN_MOTION_DOT": 2.504e-05, "MEAN_MOTION_DDOT": 0}, "tle": {"line1": "1 34790U 93036AAT 25343.17974146  .00002504  00000+0  10328-2 0  9996", "line2": "2 34790  74.0552 250.1156 0100743 312.5017 211.6898 14.24610447865223"}}, "geometry": {"type": "Point", "coordinates": [-115.7899799341044, -16.822341976855284]}}, {"type": "Feature", "properties": {"norad_id": 34792, "name": "COSMOS 2251 DEB", "group": "cosmos-2251-debris", "lat": -48.68450610073099, "lon": 156.43737682148594, "alt_km": 706.0434630540185, "timestamp": "2025-12-09T16:56:36.969433+00:00", "meta": {"OBJECT_NAME": "COSMOS 2251 DEB", "OBJECT_ID": "1993-036AAV", "EPOCH": "2025-12-09T12:22:02.661312", "MEAN_MOTION": 14.55910931, "ECCENTRICITY": 0.0012529, "INCLINATION": 74.0177, "RA_OF_ASC_NODE": 175.8284, "ARG_OF_PERICENTER": 269.6711, "MEAN_ANOMALY": 119.962, "EPHEMERIS_TYPE": 0, "CLASSIFICATION_TYPE": "U", "NORAD_CAT_ID": 34792, "ELEMENT_SET_NO": 999, "REV_AT_EPOCH": 87603, "BSTAR": 0.0013598, "MEAN_MOTION_DOT": 5.954e-05, "MEAN_MOTION_DDOT": 0}, "tle": {"line1": "1 34792U 93036AAV 25343.51530858  .00005954  00000+0  13598-2 0  9998", "line2": "2 34792  74.0177 175.8284 0012529 269.6711 119.9620 14.55910931876039"}}, "geometry": {"type": "Point", "coordinates": [156.43737682148594, -48.68450610073099]}}, {"type": "Feature", "properties": {"norad_id": 34793, "name": "COSMOS 2251 DEB", "group": "cosmos-2251-debris", "lat": -73.10289474160435, "lon": -174.83012643581063, "alt_km": 795.3762066987447, "timestamp": "2025-12-09T16:56:36.969443+00:00", "meta": {"OBJECT_NAME": "COSMOS 2251 DEB", "OBJECT_ID": "1993-036AAW", "EPOCH": "2025-12-09T04:40:40.706112", "MEAN_MOTION": 14.38634562, "ECCENTRICITY": 0.00501442, "INCLINATION": 74.003, "RA_OF_ASC_NODE": 256.9155, "ARG_OF_PERICENTER": 51.9609, "MEAN_ANOMALY": 98.14, "EPHEMERIS_TYPE": 0, "CLASSIFICATION_TYPE": "U", "NORAD_CAT_ID": 34793, "ELEMENT_SET_NO": 999, "REV_AT_EPOCH": 87279, "BSTAR": 0.00040008788, "MEAN_MOTION_DOT": 1.218e-05, "MEAN_MOTION_DDOT": 0}, "tle": {"line1": "1 34793U 93036AAW 25343.19491558  .00001218  00000+0  40009-3 0  9993", "line2": "2 34793  74.0030 256.9155 0050144  51.9609  98.1400 14.38634562872796"}}, "geometry": {"type": "Point", "coordinates": [-174.83012643581063, -73.10289474160435]}}, {"type": "Feature", "properties": {"norad_id": 34796, "name": "COSMOS 2251 DEB", "group": "cosmos-2251-debris", "lat": -70.9137236859035, "lon": 97.89235661073923, "alt_km": 706.613236557464, "timestamp": "2025-12-09T16:56:36.969454+00:00", "meta": {"OBJECT_NAME": "COSMOS 2251 DEB", "OBJECT_ID": "1993-036AAZ", "EPOCH": "2025-12-09T03:04:31.147392", "MEAN_MOTION": 14.48661522, "ECCENTRICITY": 0.01002341, "INCLINATION": 74.0291, "RA_OF_ASC_NODE": 223.1156, "ARG_OF_PERICENTER": 325.9533, "MEAN_ANOMALY": 162.1433, "EPHEMERIS_TYPE": 0, "CLASSIFICATION_TYPE": "U", "NORAD_CAT_ID": 34796, "ELEMENT_SET_NO": 999, "REV_AT_EPOCH": 87975, "BSTAR": 0.00086381205, "MEAN_MOTION_DOT": 3.438e-05, "MEAN_MOTION_DDOT": 0}, "tle": {"line1": "1 34796U 93036AAZ 25343.12813828  .00003438  00000+0  86381-3 0  9996", "line2": "2 34796  74.0291 223.1156 0100234 325.9533 162.1433 14.48661522879759"}}, "geometry": {"type": "Point", "coordinates": [97.89235661073923, -70.9137236859035]}}, {"type": "Feature", "properties": {"norad_id": 34797, "name": "COSMOS 2251 DEB", "group": "cosmos-2251-debris", "lat": 73.7427096080046, "lon": -174.170638301821, "alt_km": 776.3836810751081, "timestamp": "2025-12-09T16:56:36.969464+00:00", "meta": {"OBJECT_NAME": "COSMOS 2251 DEB", "OBJECT_ID": "1993-036ABA", "EPOCH": "2025-12-08T02:15:30.483648", "MEAN_MOTION": 14.42690241, "ECCENTRICITY": 0.00721111, "INCLINATION": 73.9779, "RA_OF_ASC_NODE": 108.638, "ARG_OF_PERICENTER": 222.8023, "MEAN_ANOMALY": 136.7506, "EPHEMERIS_TYPE": 0, "CLASSIFICATION_TYPE": "U", "NORAD_CAT_ID": 34797, "ELEMENT_SET_NO": 999, "REV_AT_EPOCH": 87348, "BSTAR": 0.0033221371, "MEAN_MOTION_DOT": 0.00011397, "MEAN_MOTION_DDOT": 0}, "tle": {"line1": "1 34797U 93036ABA 25342.09410282  .00011397  00000+0  33221-2 0  9996", "line2": "2 34797  73.9779 108.6380 0072111 222.8023 136.7506 14.42690241873482"}}, "geometry": {"type": "Point", "coordinates": [-174.170638301821, 73.7427096080046]}}, {"type": "Feature", "properties": {"norad_id": 34814, "name": "COSMOS 2251 DEB", "group": "cosmos-2251-debris", "lat": 42.802835108276696, "lon": 135.5455200071133, "alt_km": 762.0387331472584, "timestamp": "2025-12-09T16:56:36.969474+00:00", "meta": {"OBJECT_NAME": "COSMOS 2251 DEB", "OBJECT_ID": "1993-036ABD", "EPOCH": "2025-12-09T10:20:25.681056", "MEAN_MOTION": 14.36871417, "ECCENTRICITY": 0.0056424, "INCLINATION": 73.8962, "RA_OF_ASC_NODE": 331.5737, "ARG_OF_PERICENTER": 221.664, "MEAN_ANOMALY": 291.2798, "EPHEMERIS_TYPE": 0, "CLASSIFICATION_TYPE": "U", "NORAD_CAT_ID": 34814, "ELEMENT_SET_NO": 999, "REV_AT_EPOCH": 87285, "BSTAR": 0.0012972, "MEAN_MOTION_DOT": 3.881e-05, "MEAN_MOTION_DDOT": 0}, "tle": {"line1": "1 34814U 93036ABD 25343.43085279  .00003881  00000+0  12972-2 0  9998", "line2": "2 34814  73.8962 331.5737 0056424 221.6640 291.2798 14.36871417872858"}}, "geometry": {"type": "Point", "coordinates": [135.5455200071133, 42.802835108276696]}}, {"type": "Feature", "properties": {"norad_id": 34815, "name": "COSMOS 2251 DEB", "group": "cosmos-2251-debris", "lat": -18.099120478765393, "lon": 73.12241113839974, "alt_km": 659.2734908522216, "timestamp": "2025-12-09T16:56:36.969485+00:00", "meta": {"OBJECT_NAME": "COSMOS 2251 DEB", "OBJECT_ID": "1993-036ABE", "EPOCH": "2025-12-09T11:10:12.351936", "MEAN_MOTION": 14.78241415, "ECCENTRICITY": 0.0058866, "INCLINATION": 74.0452, "RA_OF_ASC_NODE": 248.2294, "ARG_OF_PERICENTER": 318.1055, "MEAN_ANOMALY": 41.5622, "EPHEMERIS_TYPE": 0, "CLASSIFICATION_TYPE": "U", "NORAD_CAT_ID": 34815, "ELEMENT_SET_NO": 999, "REV_AT_EPOCH": 88579, "BSTAR": 0.0013749, "MEAN_MOTION_DOT": 0.00010252, "MEAN_MOTION_DDOT": 0}, "tle": {"line1": "1 34815U 93036ABE 25343.46542074  .00010252  00000+0  13749-2 0  9996", "line2": "2 34815  74.0452 248.2294 0058866 318.1055  41.5622 14.78241415885796"}}, "geometry": {"type": "Point", "coordinates": [73.12241113839974, -18.099120478765393]}}, {"type": "Feature", "properties": {"norad_id": 34816, "name": "COSMOS 2251 DEB", "group": "cosmos-2251-debris", "lat": 19.79015880556807, "lon": 154.04367228900963, "alt_km": 1311.8560764197673, "timestamp": "2025-12-09T16:56:36.969495+00:00", "meta": {"OBJECT_NAME": "COSMOS 2251 DEB", "OBJECT_ID": "1993-036ABF", "EPOCH": "2025-12-06T22:26:27.336768", "MEAN_MOTION": 13.5829822, "ECCENTRICITY": 0.03736298, "INCLINATION": 73.886, "RA_OF_ASC_NODE": 152.5929, "ARG_OF_PERICENTER": 218.068, "MEAN_ANOMALY": 297.1187, "EPHEMERIS_TYPE": 0, "CLASSIFICATION_TYPE": "U", "NORAD_CAT_ID": 34816, "ELEMENT_SET_NO": 999, "REV_AT_EPOCH": 82704, "BSTAR": 0.0017880706, "MEAN_MOTION_DOT": 2.026e-05, "MEAN_MOTION_DDOT": 0}, "tle": {"line1": "1 34816U 93036ABF 25340.93503862  .00002026  00000+0  17881-2 0  9999", "line2": "2 34816  73.8860 152.5929 0373629 218.0680 297.1187 13.58298220827040"}}, "geometry": {"type": "Point", "coordinates": [154.04367228900963, 19.79015880556807]}}, {"type": "Feature", "properties": {"norad_id": 34818, "name": "COSMOS 2251 DEB", "group": "cosmos-2251-debris", "lat": -25.32665662719356, "lon": 130.30425727409985, "alt_km": 790.8017101043006, "timestamp": "2025-12-09T16:56:36.969506+00:00", "meta": {"OBJECT_NAME": "COSMOS 2251 DEB", "OBJECT_ID": "1993-036ABH", "EPOCH": "2025-12-08T15:45:47.779200", "MEAN_MOTION": 14.36959493, "ECCENTRICITY": 0.0023979, "INCLINATION": 74.0355, "RA_OF_ASC_NODE": 304.4464, "ARG_OF_PERICENTER": 21.1656, "MEAN_ANOMALY": 159.8945, "EPHEMERIS_TYPE": 0, "CLASSIFICATION_TYPE": "U", "NORAD_CAT_ID": 34818, "ELEMENT_SET_NO": 999, "REV_AT_EPOCH": 87311, "BSTAR": 0.00045428, "MEAN_MOTION_DOT": 1.324e-05, "MEAN_MOTION_DDOT": 0}, "tle": {"line1": "1 34818U 93036ABH 25342.65680300  .00001324  00000+0  45428-3 0  9994", "line2": "2 34818  74.0355 304.4464 0023979  21.1656 159.8945 14.36959493873110"}}, "geometry": {"type": "Point", "coordinates": [130.30425727409985, -25.32665662719356]}}]}